OBJECT_NAME,OBJECT_ID,EPOCH,MEAN_MOTION,ECCENTRICITY,INCLINATION,RA_OF_ASC_NODE,ARG_OF_PERICENTER,MEAN_ANOMALY,EPHEMERIS_TYPE,CLASSIFICATION_TYPE,NORAD_CAT_ID,ELEMENT_SET_NO,REV_AT_EPOCH,BSTAR,MEAN_MOTION_DOT,MEAN_MOTION_DDOT
ONEWEB-0522,2022-138AD,2026-07-19T19:40:05.625984,13.19724087,.0001979,87.9196,298.4622,104.7791,255.3561,0,U,54140,999,18111,.92052E-4,.5E-6,0
ONEWEB-0523,2022-138AE,2026-07-19T16:19:54.287616,13.20771084,.0002154,87.9182,267.9662,76.5849,283.5525,0,U,54141,999,18359,-.44907E-3,-.17E-5,0
ONEWEB-0524,2022-138AF,2026-07-19T17:54:27.391104,13.20770768,.0002817,87.9181,267.9498,87.4735,272.6721,0,U,54142,999,18360,-.61826E-3,-.238E-5,0
ONEWEB-0525,2022-138AG,2026-07-19T18:18:13.042944,13.19723441,.0002297,87.9195,298.4807,108.7272,251.4110,0,U,54143,999,18112,.5222E-4,.34E-6,0
ONEWEB-0526,2022-138AH,2026-07-19T19:05:59.052768,13.19724468,.0002152,87.9193,298.4747,102.3218,257.8155,0,U,54144,999,18110,-.84792E-5,.1E-6,0
ONEWEB-0529,2022-138AJ,2026-07-19T17:21:21.653856,13.19726126,.0002137,87.9185,298.4958,106.6129,253.5238,0,U,54145,999,18111,.12495E-4,.18E-6,0
ONEWEB-0531,2022-138AK,2026-07-19T17:35:03.060384,13.20769709,.0002373,87.9186,267.9500,77.3124,282.8275,0,U,54146,999,18360,-.45107E-4,-.5E-7,0
ONEWEB-0535,2022-138AL,2026-07-19T18:09:06.270048,13.19723524,.0001919,87.9196,298.4762,91.3977,268.7376,0,U,54147,999,18113,.13091E-3,.65E-6,0
ONEWEB-0536,2022-138AM,2026-07-19T04:32:01.779072,13.20771064,.00026264,87.9170,268.0769,76.7913,283.3513,0,U,54148,999,18352,-.43602336E-3,-.164E-5,0
ONEWEB-0527,2022-166A,2026-07-19T02:53:32.976384,13.21827773,.00021072,87.9232,237.6411,97.0728,263.0645,0,U,54642,999,17575,.1465437E-3,.74E-6,0
ONEWEB-0528,2022-166B,2026-07-19T19:15:47.600064,13.21826446,.0002188,87.9231,237.5079,100.0695,260.0686,0,U,54643,999,17585,-.25258E-4,.3E-7,0
ONEWEB-0539,2022-166C,2026-07-19T12:54:16.758144,13.21824225,.0001851,87.9236,237.5346,96.4002,263.7343,0,U,54644,999,17581,.90727E-4,.5E-6,0
ONEWEB-0540,2022-166D,2026-07-19T11:15:10.145088,13.21824388,.00019531,87.9230,237.5764,94.4633,265.6724,0,U,54645,999,17579,-.2148104E-3,-.76E-6,0
ONEWEB-0542,2022-166E,2026-07-19T13:08:49.532928,13.21826124,.000176,87.9240,237.5318,96.3944,263.7390,0,U,54646,999,17581,-.59679E-4,-.12E-6,0
ONEWEB-0545,2022-166F,2026-07-19T03:12:56.693664,13.21826215,.00014632,87.9233,237.6237,90.4094,269.7207,0,U,54647,999,17572,.15010011E-3,.75E-6,0
ONEWEB-0580,2022-166G,2026-07-19T13:30:36.416736,13.21823714,.0001728,87.9230,237.5375,88.9626,271.1705,0,U,54648,999,17582,-.77188E-4,-.19E-6,0
ONEWEB-0582,2022-166H,2026-07-19T19:58:09.963264,13.21823751,.0001616,87.9231,237.4768,93.6406,266.4913,0,U,54649,999,17583,-.17458E-3,-.59E-6,0
ONEWEB-0583,2022-166J,2026-07-19T20:15:08.994240,13.21825720,.0001934,87.9230,237.4978,94.7725,265.3630,0,U,54650,999,17584,-.20317E-4,.5E-7,0
ONEWEB-0584,2022-166K,2026-07-19T11:39:11.380032,13.21825353,.00020957,87.9231,237.5539,95.4181,264.7192,0,U,54651,999,17578,-.22796591E-4,.4E-7,0
ONEWEB-0585,2022-166L,2026-07-19T12:13:05.594592,13.21823945,.00022479,87.9231,237.5368,96.1888,263.9502,0,U,54652,999,17579,.86828045E-4,.49E-6,0
ONEWEB-0586,2022-166M,2026-07-19T19:48:29.462400,13.21823499,.000189,87.9231,237.4998,97.2817,262.8532,0,U,54653,999,17583,.17092E-4,.2E-6,0
ONEWEB-0587,2022-166N,2026-07-19T03:42:00.950688,13.21826201,.0002407,87.9240,237.6097,97.4728,262.6679,0,U,54654,999,17590,.8444287E-5,.17E-6,0
ONEWEB-0589,2022-166P,2026-07-19T12:27:39.026880,13.21825619,.00013047,87.9230,237.5454,82.0398,278.0884,0,U,54655,999,17581,-.18735953E-4,.5E-7,0
ONEWEB-0590,2022-166Q,2026-07-19T20:19:46.265664,13.21826222,.0002197,87.9238,237.4734,83.8610,276.2774,0,U,54656,999,17584,-.15041E-3,-.49E-6,0
ONEWEB-0591,2022-166R,2026-07-19T13:20:54.452256,13.21824240,.0002024,87.9228,237.5430,92.3043,267.8323,0,U,54657,999,17583,-.27179E-3,-.99E-6,0
ONEWEB-0592,2022-166S,2026-07-19T11:36:46.083744,13.21824558,.00020551,87.9241,237.5385,96.6955,263.4413,0,U,54658,999,17570,.1517156E-4,.19E-6,0
ONEWEB-0593,2022-166T,2026-07-19T12:08:15.515232,13.21826465,.00019176,87.9237,237.5440,97.9898,262.1454,0,U,54659,999,17581,.10301912E-3,.56E-6,0
ONEWEB-0594,2022-166U,2026-07-19T19:53:20.371200,13.21824519,.0002267,87.9229,237.4952,98.6091,261.5299,0,U,54660,999,17587,.46403E-4,.32E-6,0
ONEWEB-0595,2022-166V,2026-07-19T19:19:26.167872,13.21826052,.0002304,87.9238,237.4830,95.0058,265.1339,0,U,54661,999,17584,.94908E-4,.52E-6,0
ONEWEB-0596,2022-166W,2026-07-19T13:16:04.583712,13.21821341,.0002105,87.9232,237.5427,96.3550,263.7824,0,U,54662,999,17581,.1215E-2,.515E-5,0
